[{"OBJECT_NAME":"OBJECT J","OBJECT_ID":"2023-085J","EPOCH":"2026-03-09T22:47:59.920512","MEAN_MOTION":15.31507187,"ECCENTRICITY":0.00067028,"INCLINATION":97.4828,"RA_OF_ASC_NODE":180.1819,"ARG_OF_PERICENTER":41.7877,"MEAN_ANOMALY":318.3875,"EPHEMERIS_TYPE":0,"CLASSIFICATION_TYPE":"U","NORAD_CAT_ID":57012,"ELEMENT_SET_NO":999,"REV_AT_EPOCH":15156,"BSTAR":0.00064525349,"MEAN_MOTION_DOT":0.00019595,"MEAN_MOTION_DDOT":0},{"OBJECT_NAME":"STARLINK-35236","OBJECT_ID":"2025-232D","EPOCH":"2026-03-09T19:33:06.527232","MEAN_MOTION":15.30201337,"ECCENTRICITY":0.00015344,"INCLINATION":53.1593,"RA_OF_ASC_NODE":103.4018,"ARG_OF_PERICENTER":89.9506,"MEAN_ANOMALY":270.1671,"EPHEMERIS_TYPE":0,"CLASSIFICATION_TYPE":"U","NORAD_CAT_ID":66008,"ELEMENT_SET_NO":999,"REV_AT_EPOCH":2343,"BSTAR":0.00057955464,"MEAN_MOTION_DOT":0.00016845,"MEAN_MOTION_DDOT":0}]
